NAVSTAR 77 (USA 289)    
1 43873U 18109A   24149.27903031  .00000068  00000+0  00000+0 0  9991
2 43873  55.2903 121.8148 0028954 195.7713 259.4778  2.00554912 40034
